start=new Date('2022-07-18T00:00:00.000Z').valueOf();
sats=[{"OBJECT_TYPE":"PAYLOAD","COUNTRY_CODE":"US","MEAN_MOTION":"15.06398490","TLE_LINE1":"1 46537U 20070F   22198.83850830  .00000263  00000-0  36536-4 0  9999","ELEMENT_SET_NO":"999","RA_OF_ASC_NODE":"31.0298","GP_ID":"208336632","BSTAR":"0.00003653600000","LAUNCH_DATE":"2020-10-06","OBJECT_ID":"2020-070F","ECCENTRICITY":"0.00013890","APOAPSIS":"548.180","NORAD_CAT_ID":"46537","DECAY_DATE":null,"MEAN_MOTION_DOT":"0.00000263","MEAN_MOTION_DDOT":"0.0000000000000","OBJECT_NAME":"STARLINK-1672","MEAN_ANOMALY":"275.7157","ARG_OF_PERICENTER":"84.3991","SEMIMAJOR_AXIS":"6925.353","REF_FRAME":"TEME","EPHEMERIS_TYPE":"0","EPOCH":"2022-07-17T20:07:27.117120","PERIAPSIS":"546.256","CLASSIFICATION_TYPE":"U","MEAN_ELEMENT_THEORY":"SGP4","TLE_LINE2":"2 46537  53.0561  31.0298 0001389  84.3991 275.7157 15.06398490 98911","REV_AT_EPOCH":"9891","SITE":"AFETR","INCLINATION":"53.0561","PERIOD":"95.592","CENTER_NAME":"EARTH","TIME_SYSTEM":"UTC","RCS_SIZE":"LARGE","FILE":"3516387"},{"RCS_SIZE":"LARGE","TIME_SYSTEM":"UTC","FILE":"3516387","SITE":"AFETR","INCLINATION":"53.0551","CENTER_NAME":"EARTH","PERIOD":"95.592","TLE_LINE2":"2 46538  53.0551  31.1359 0001387  72.9875 287.1266 15.06405603 98904","REV_AT_EPOCH":"9890","MEAN_ELEMENT_THEORY":"SGP4","CLASSIFICATION_TYPE":"U","PERIAPSIS":"546.236","REF_FRAME":"TEME","EPHEMERIS_TYPE":"0","EPOCH":"2022-07-17T19:35:35.962080","ARG_OF_PERICENTER":"72.9875","SEMIMAJOR_AXIS":"6925.331","OBJECT_NAME":"STARLINK-1678","MEAN_ANOMALY":"287.1266","DECAY_DATE":null,"MEAN_MOTION_DDOT":"0.0000000000000","MEAN_MOTION_DOT":"0.00001258","NORAD_CAT_ID":"46538","APOAPSIS":"548.157","ECCENTRICITY":"0.00013870","LAUNCH_DATE":"2020-10-06","OBJECT_ID":"2020-070G","GP_ID":"208336881","BSTAR":"0.00010332000000","RA_OF_ASC_NODE":"31.1359","ELEMENT_SET_NO":"999","MEAN_MOTION":"15.06405603","TLE_LINE1":"1 46538U 20070G   22198.81638845  .00001258  00000-0  10332-3 0  9998","COUNTRY_CODE":"US","OBJECT_TYPE":"PAYLOAD"},{"REF_FRAME":"TEME","EPHEMERIS_TYPE":"0","EPOCH":"2022-07-17T19:06:24.851808","CLASSIFICATION_TYPE":"U","PERIAPSIS":"546.256","MEAN_ELEMENT_THEORY":"SGP4","TLE_LINE2":"2 46541  53.0564  11.2421 0001401  88.3070 271.8079 15.06395808 99184","REV_AT_EPOCH":"9918","SITE":"AFETR","INCLINATION":"53.0564","PERIOD":"95.592","CENTER_NAME":"EARTH","RCS_SIZE":"LARGE","TIME_SYSTEM":"UTC","FILE":"3516387","DECAY_DATE":null,"MEAN_MOTION_DOT":"0.00001300","MEAN_MOTION_DDOT":"0.0000000000000","OBJECT_NAME":"STARLINK-1687","MEAN_ANOMALY":"271.8079","ARG_OF_PERICENTER":"88.3070","SEMIMAJOR_AXIS":"6925.361","RA_OF_ASC_NODE":"11.2421","BSTAR":"0.00010614000000","GP_ID":"208337123","LAUNCH_DATE":"2020-10-06","OBJECT_ID":"2020-070K","ECCENTRICITY":"0.00014010","APOAPSIS":"548.197","NORAD_CAT_ID":"46541","OBJECT_TYPE":"PAYLOAD","COUNTRY_CODE":"US","MEAN_MOTION":"15.06395808","TLE_LINE1":"1 46541U 20070K   22198.79612097  .00001300  00000-0  10614-3 0  9991","ELEMENT_SET_NO":"999"},{"FILE":"3516387","RCS_SIZE":"LARGE","TIME_SYSTEM":"UTC","CENTER_NAME":"EARTH","PERIOD":"95.592","INCLINATION":"53.0559","SITE":"AFETR","REV_AT_EPOCH":"9891","TLE_LINE2":"2 46542  53.0559  30.9278 0001331  66.5456 293.5673 15.06394949 98911","MEAN_ELEMENT_THEORY":"SGP4","CLASSIFICATION_TYPE":"U","PERIAPSIS":"546.307","EPOCH":"2022-07-17T20:44:36.334752","REF_FRAME":"TEME","EPHEMERIS_TYPE":"0","SEMIMAJOR_AXIS":"6925.364","ARG_OF_PERICENTER":"66.5456","MEAN_ANOMALY":"293.5673","OBJECT_NAME":"STARLINK-1692","MEAN_MOTION_DDOT":"0.0000000000000","MEAN_MOTION_DOT":"-0.00000406","DECAY_DATE":null,"NORAD_CAT_ID":"46542","APOAPSIS":"548.151","ECCENTRICITY":"0.00013310","OBJECT_ID":"2020-070L","LAUNCH_DATE":"2020-10-06","BSTAR":"-0.00000837760000","GP_ID":"208335383","RA_OF_ASC_NODE":"30.9278","ELEMENT_SET_NO":"999","TLE_LINE1":"1 46542U 20070L   22198.86430943 -.00000406  00000-0 -83776-5 0  9997","MEAN_MOTION":"15.06394949","COUNTRY_CODE":"US","OBJECT_TYPE":"PAYLOAD"},{"ECCENTRICITY":"0.00012320","LAUNCH_DATE":"2020-10-06","OBJECT_ID":"2020-070M","NORAD_CAT_ID":"46543","APOAPSIS":"548.054","RA_OF_ASC_NODE":"30.9871","BSTAR":"0.00012294000000","GP_ID":"208336133","ELEMENT_SET_NO":"999","MEAN_MOTION":"15.06404273","TLE_LINE1":"1 46543U 20070M   22198.84956541  .00001550  00000-0  12294-3 0  9997","OBJECT_TYPE":"PAYLOAD","COUNTRY_CODE":"US","INCLINATION":"53.0556","SITE":"AFETR","PERIOD":"95.592","CENTER_NAME":"EARTH","TLE_LINE2":"2 46543  53.0556  30.9871 0001232  75.0623 285.0502 15.06404273 98918","REV_AT_EPOCH":"9891","RCS_SIZE":"LARGE","TIME_SYSTEM":"UTC","FILE":"3516387","CLASSIFICATION_TYPE":"U","PERIAPSIS":"546.347","EPHEMERIS_TYPE":"0","REF_FRAME":"TEME","EPOCH":"2022-07-17T20:23:22.451424","MEAN_ELEMENT_THEORY":"SGP4","OBJECT_NAME":"STARLINK-1693","MEAN_ANOMALY":"285.0502","DECAY_DATE":null,"MEAN_MOTION_DOT":"0.00001550","MEAN_MOTION_DDOT":"0.0000000000000","ARG_OF_PERICENTER":"75.0623","SEMIMAJOR_AXIS":"6925.335"},{"OBJECT_TYPE":"PAYLOAD","COUNTRY_CODE":"US","MEAN_MOTION":"15.06395263","TLE_LINE1":"1 46544U 20070N   22198.77907905 -.00001075  00000-0 -53260-4 0  9993","ELEMENT_SET_NO":"999","RA_OF_ASC_NODE":"16.3230","GP_ID":"208336382","BSTAR":"-0.00005326000000","LAUNCH_DATE":"2020-10-06","OBJECT_ID":"2020-070N","ECCENTRICITY":"0.00013250","APOAPSIS":"548.146","NORAD_CAT_ID":"46544","DECAY_DATE":null,"MEAN_MOTION_DOT":"-0.00001075","MEAN_MOTION_DDOT":"0.0000000000000","OBJECT_NAME":"STARLINK-1694","MEAN_ANOMALY":"276.9225","ARG_OF_PERICENTER":"83.1914","SEMIMAJOR_AXIS":"6925.363","REF_FRAME":"TEME","EPHEMERIS_TYPE":"0","EPOCH":"2022-07-17T18:41:52.429920","CLASSIFICATION_TYPE":"U","PERIAPSIS":"546.310","MEAN_ELEMENT_THEORY":"SGP4","TLE_LINE2":"2 46544  53.0542  16.3230 0001325  83.1914 276.9225 15.06395263 99119","REV_AT_EPOCH":"9911","SITE":"AFETR","INCLINATION":"53.0542","CENTER_NAME":"EARTH","PERIOD":"95.592","RCS_SIZE":"LARGE","TIME_SYSTEM":"UTC","FILE":"3516387"},{"DECAY_DATE":null,"MEAN_MOTION_DDOT":"0.0000000000000","MEAN_MOTION_DOT":"0.00000413","OBJECT_NAME":"STARLINK-1696","MEAN_ANOMALY":"277.1314","ARG_OF_PERICENTER":"82.9867","SEMIMAJOR_AXIS":"6925.364","TLE_LINE2":"2 46545  53.0542  31.1308 0001687  82.9867 277.1314 15.06394941 98906","REV_AT_EPOCH":"9890","SITE":"AFETR","INCLINATION":"53.0542","CENTER_NAME":"EARTH","PERIOD":"95.592","RCS_SIZE":"LARGE","TIME_SYSTEM":"UTC","FILE":"3516387","REF_FRAME":"TEME","EPHEMERIS_TYPE":"0","EPOCH":"2022-07-17T19:40:54.955200","PERIAPSIS":"546.061","CLASSIFICATION_TYPE":"U","MEAN_ELEMENT_THEORY":"SGP4","MEAN_MOTION":"15.06394941","TLE_LINE1":"1 46545U 20070P   22198.82008050  .00000413  00000-0  46646-4 0  9996","ELEMENT_SET_NO":"999","OBJECT_TYPE":"PAYLOAD","COUNTRY_CODE":"US","LAUNCH_DATE":"2020-10-06","OBJECT_ID":"2020-070P","ECCENTRICITY":"0.00016870","APOAPSIS":"548.397","NORAD_CAT_ID":"46545","RA_OF_ASC_NODE":"31.1308","GP_ID":"208336624","BSTAR":"0.00004664600000"},{"LAUNCH_DATE":"2020-10-06","OBJECT_ID":"2020-070Q","ECCENTRICITY":"0.00015680","APOAPSIS":"548.290","NORAD_CAT_ID":"46546","RA_OF_ASC_NODE":"31.1884","BSTAR":"0.00008948100000","GP_ID":"208335882","MEAN_MOTION":"15.06403245","TLE_LINE1":"1 46546U 20070Q   22198.80533700  .00001052  00000-0  89481-4 0  9994","ELEMENT_SET_NO":"999","OBJECT_TYPE":"PAYLOAD","COUNTRY_CODE":"US","TLE_LINE2":"2 46546  53.0568  31.1884 0001568  65.5485 294.5667 15.06403245 98907","REV_AT_EPOCH":"9890","SITE":"AFETR","INCLINATION":"53.0568","CENTER_NAME":"EARTH","PERIOD":"95.592","RCS_SIZE":"LARGE","TIME_SYSTEM":"UTC","FILE":"3516387","EPHEMERIS_TYPE":"0","REF_FRAME":"TEME","EPOCH":"2022-07-17T19:19:41.116800","CLASSIFICATION_TYPE":"U","PERIAPSIS":"546.118","MEAN_ELEMENT_THEORY":"SGP4","DECAY_DATE":null,"MEAN_MOTION_DOT":"0.00001052","MEAN_MOTION_DDOT":"0.0000000000000","OBJECT_NAME":"STARLINK-1697","MEAN_ANOMALY":"294.5667","ARG_OF_PERICENTER":"65.5485","SEMIMAJOR_AXIS":"6925.339"},{"ARG_OF_PERICENTER":"69.8757","SEMIMAJOR_AXIS":"6925.359","OBJECT_NAME":"STARLINK-1698","MEAN_ANOMALY":"290.2382","DECAY_DATE":null,"MEAN_MOTION_DDOT":"0.0000000000000","MEAN_MOTION_DOT":"-0.00000019","MEAN_ELEMENT_THEORY":"SGP4","CLASSIFICATION_TYPE":"U","PERIAPSIS":"546.254","REF_FRAME":"TEME","EPHEMERIS_TYPE":"0","EPOCH":"2022-07-17T21:36:19.274112","TIME_SYSTEM":"UTC","RCS_SIZE":"LARGE","FILE":"3516387","INCLINATION":"53.0549","SITE":"AFETR","CENTER_NAME":"EARTH","PERIOD":"95.592","TLE_LINE2":"2 46547  53.0549  30.7543 0001400  69.8757 290.2382 15.06396591 98922","REV_AT_EPOCH":"9892","COUNTRY_CODE":"US","OBJECT_TYPE":"PAYLOAD","ELEMENT_SET_NO":"999","MEAN_MOTION":"15.06396591","TLE_LINE1":"1 46547U 20070R   22198.90022308 -.00000019  00000-0  17630-4 0  9993","GP_ID":"208336633","BSTAR":"0.00001763000000","RA_OF_ASC_NODE":"30.7543","NORAD_CAT_ID":"46547","APOAPSIS":"548.194","ECCENTRICITY":"0.00014000","LAUNCH_DATE":"2020-10-06","OBJECT_ID":"2020-070R"},{"PERIAPSIS":"546.110","CLASSIFICATION_TYPE":"U","EPOCH":"2022-07-17T18:42:32.068512","REF_FRAME":"TEME","EPHEMERIS_TYPE":"0","MEAN_ELEMENT_THEORY":"SGP4","CENTER_NAME":"EARTH","PERIOD":"95.592","INCLINATION":"53.0559","SITE":"AFETR","REV_AT_EPOCH":"9890","TLE_LINE2":"2 46548  53.0559  31.3094 0001565  81.4713 278.6453 15.06406306 98909","FILE":"3516387","RCS_SIZE":"LARGE","TIME_SYSTEM":"UTC","MEAN_ANOMALY":"278.6453","OBJECT_NAME":"STARLINK-1699","MEAN_MOTION_DDOT":"0.0000000000000","MEAN_MOTION_DOT":"0.00000580","DECAY_DATE":null,"SEMIMAJOR_AXIS":"6925.329","ARG_OF_PERICENTER":"81.4713","RA_OF_ASC_NODE":"31.3094","GP_ID":"208336882","BSTAR":"0.00005781700000","ECCENTRICITY":"0.00015650","OBJECT_ID":"2020-070S","LAUNCH_DATE":"2020-10-06","NORAD_CAT_ID":"46548","APOAPSIS":"548.278","OBJECT_TYPE":"PAYLOAD","COUNTRY_CODE":"US","ELEMENT_SET_NO":"999","TLE_LINE1":"1 46548U 20070S   22198.77953783  .00000580  00000-0  57817-4 0  9992","MEAN_MOTION":"15.06406306"}];
